1 41406U 00055KK  18242.02268716  .00000744  00000-0  34679-3 0  9991
2 41406  98.8845 332.9976 0047078  86.8453 273.8109 14.22967892131137
1 41511U 00055MK  18242.39574186  .00000607  00000-0  37634-3 0  9991
2 41511  98.8775 310.9092 0026645 282.4066  77.4122 14.08775199125746
1 41648U 08067U   16256.32863924 -.00004794  00000-0 -30016+0 0  9996
2 41648  64.8281 353.6398 5416086  72.9197 337.6300  4.13243737  3757
1 41374U 00055JT  18241.43680639 +.00000364 +00000-0 +24523-3 0  9996
2 41374 098.8941 308.0809 0035824 305.1207 054.6606 14.06507971133844
1 41495U 00055LT  18241.37569449 +.00000699 +00000-0 +46848-3 0  9993
2 41495 098.8315 296.9007 0041445 002.8274 357.3120 14.03693935126916
1 41651U 08067X   16274.43082585 -.00000048  00000-0  00000+0 0  9995
2 41651  64.8611 347.9234 5382139  70.2204 338.8755  4.13828431  4493
1 41540U 00055NQ  18241.64311014 +.00000267 +00000-0 +18837-3 0  9995
2 41540 098.8776 306.0199 0036303 309.4715 050.3243 14.06049922122046
1 41358U 00055JB  18242.14806217  .00000479  00000-0  27980-3 0  9996
2 41358  98.8216 311.7718 0020415 209.9169 150.0838 14.13054736132727
1 41544U 15075E   18240.99960228 -.00000145 +00000-0 +00000-0 0  9997
2 41544 002.0033 092.3378 0293102 084.8307 279.0238 01.05680526010125
1 41547U 15075H   18215.61682314 -.00000200 +00000-0 +00000-0 0  9990
2 41547 001.9704 097.3778 0266535 044.6662 317.3804 01.03191852009612
1 41409U 00055KN  18242.41059628  .00000681  00000-0  35972-3 0  9994
2 41409  98.7889 313.2289 0040991 179.5389 180.5830 14.16711226130686
1 41524U 00055MY  16240.00441139  .00000241  00000-0  13866-3 0  9995
2 41524  98.8815 311.1021 0033454  61.3223 299.1308 14.18105262 17945
1 41527U 00055NB  18242.06189277  .00000972  00000-0  43165-3 0  9996
2 41527  98.9903 345.8587 0052559 109.5110 251.1756 14.24656558127926
1 41377U 00055JW  18242.04720169  .00000597  00000-0  34159-3 0  9994
2 41377  98.9010 320.0258 0026957 223.0004 136.9062 14.13172260135824
1 41654U 00055NT  18241.44673812 +.00000455 +00000-0 +26808-3 0  9992
2 41654 098.8013 307.3846 0045503 045.8461 314.6438 14.12338962121773
1 41426U 00055LF  18240.99698806  .00001138  00000-0  64908-3 0  9990
2 41426  98.9486 318.3095 0020527  45.9914 314.2944 14.11658322130824
1 41361U 00055JE  18241.94599834  .00000479  00000-0  31911-3 0  9990
2 41361  98.8688 303.6746 0037113  30.3905 329.9404 14.05541953131089
1 41429U 00055LJ  18242.00402582  .00000586  00000-0  33692-3 0  9993
2 41429  98.8692 316.4598 0021671 213.5060 146.4742 14.13021162129454
1 41364U 00055JH  18241.70115633 +.00000720 +00000-0 +41375-3 0  9992
2 41364 098.8037 307.3157 0016649 044.2655 315.9846 14.12392940132156
1 41432U 00055LM  18242.14549649  .00002541  00000-0  77288-3 0  9990
2 41432  98.8756 354.5090 0104048 350.0997   9.8138 14.39934678133140
1 41562U 08067L   18242.64446084  .00000073  00000-0  41522-3 0  9999
2 41562  65.0778 111.6337 5728773  22.1219 355.0988  4.20240066 37171
1 41514U 00055MN  18241.46533109  .00000847  00000-0  40898-3 0  9993
2 41514  98.8772 327.7082 0043324  66.4014 294.1703 14.20797403122620
1 41412U 00055KR  18241.59550012 +.00000684 +00000-0 +42575-3 0  9999
2 41412 098.7673 295.5347 0025943 300.8082 059.0535 14.08070462129712
1 41517U 00055MR  18241.03665781 +.00001504 +00000-0 +62125-3 0  9999
2 41517 098.8163 329.4649 0057236 068.5540 292.1732 14.27345434122933
1 41530U 00055NE  18241.43753127 +.00001182 +00000-0 +43897-3 0  9997
2 41530 098.7609 331.1622 0096513 086.6332 274.5886 14.31458203122853
1 41498U 00055LW  18241.06747269  .00000336  00000-0  19359-3 0  9995
2 41498  98.9215 325.6399 0016568 156.6235 203.5695 14.15754954127839
1 41396U 00055JZ  18238.51671112  .00001814  00000-0  50955-3 0  9990
2 41396  98.8518 354.9084 0120608 351.7317   8.1883 14.43094861135952
1 41501U 00055LZ  18241.04973627 +.00001011 +00000-0 +42634-3 0  9990
2 41501 098.7187 319.0564 0057641 067.4465 293.2801 14.26957143129117
1 41657U 00055NW  18242.01820141  .00000565  00000-0  31910-3 0  9990
2 41657  98.7997 310.0868 0015495  67.6212 292.6601 14.14118711121928
1 41367U 00055JL  18241.52230322  .00000963  00000-0  46121-3 0  9991
2 41367  98.9355 333.6357 0057216 152.3637 208.0600 14.20579965132820
1 41444U 16012N   18241.96320255 +.00004568 +00000-0 +28078-3 0  9996
2 41444 031.0023 170.1899 0010393 135.3408 224.8068 15.08369046133293
1 41644U 08067Q   18242.75360639  .00005850  00000-0  21659-1 0  9998
2 41644  65.0306  95.0854 5627615  46.3732 348.5344  4.34064115 34881
1 41415U 00055KU  18241.47185949  .00000599  00000-0  33539-3 0  9997
2 41415  98.8549 316.4444 0009478 120.9150 239.2955 14.14512847129501
1 41533U 00055NH  18241.49779704 +.00001569 +00000-0 +53451-3 0  9991
2 41533 098.8087 341.8698 0097118 061.7569 299.3378 14.35289526123447
1 41351U 00055HU  18242.00752092  .00000389  00000-0  24416-3 0  9996
2 41351  98.7920 303.5271 0010957  27.7751 332.4003 14.10186671135619
1 41419U 00055KY  18241.65800290 +.00000894 +00000-0 +52153-3 0  9995
2 41419 098.8980 312.1906 0017468 013.8100 346.3545 14.10963292129395
1 41399U 00055KC  18242.40698748  .00000420  00000-0  29002-3 0  9991
2 41399  98.8882 304.3416 0044866 321.6178  38.1799 14.04167717133044
1 41504U 00055MC  18242.40970262  .00000727  00000-0  45420-3 0  9995
2 41504  98.8982 310.1577 0033320 285.1560  74.5925 14.07675909129239
1 41370U 00055JP  18242.24838154  .00001028  00000-0  37575-3 0  9998
2 41370  98.8825 347.7227 0089653  56.3995 304.5705 14.32972046143502
1 41491U 00055LP  18241.36031913 +.00000914 +00000-0 +68790-3 0  9998
2 41491 098.9111 285.7508 0112989 076.7193 284.6540 13.93813579126803
1 41647U 08067T   18241.82089313 -.00000003  00000-0  00000+0 0  9996
2 41647  64.5520 138.7269 5129780  52.9916 343.8828  4.12545664 33308
1 41520U 00055MU  18241.04690389  .00001340  00000-0  77323-3 0  9990
2 41520  98.9315 313.5813 0057838 254.8667 104.6101 14.09988680121192
1 41536U 00055NL  18242.16690639  .00000564  00000-0  30652-3 0  9990
2 41536  98.8422 318.7433 0018196 128.5131 231.7678 14.16204519134712
1 41354U 00055HX  18242.41580455  .00000538  00000-0  32970-3 0  9996
2 41354  98.8596 311.0669 0022893 264.8457  95.0101 14.09887714133327
1 41422U 00055LB  18241.42153330 +.00000623 +00000-0 +37080-3 0  9992
2 41422 098.8829 313.8533 0017012 041.5087 318.7373 14.10977242131094
1 41402U 00055KF  18242.39701158  .00000473  00000-0  31654-3 0  9998
2 41402  98.8554 303.1092 0034566  20.7983 339.4582 14.05448710131185
1 41507U 00055MF  18241.46612767 +.00000901 +00000-0 +45795-3 0  9995
2 41507 098.8931 325.2621 0023278 113.3525 247.0102 14.18321653126290
1 41405U 00055KJ  18242.43659963  .00001022  00000-0  58112-3 0  9991
2 41405  98.9052 316.1295 0017029 251.7057 108.2262 14.12049728130308
1 41510U 00055MJ  18241.67132912 +.00000551 +00000-0 +32210-3 0  9990
2 41510 098.8889 316.8805 0030006 229.1406 130.7165 14.12277189125897
1 41523U 00055MX  18241.00359561 +.00000632 +00000-0 +37387-3 0  9992
2 41523 098.8877 314.7044 0009811 262.8898 097.1157 14.11342855121120
1 41650U 08067W   17023.20705350 -.23003682  00000-0  10000-3 0  9991
2 41650  65.3197 315.1788 5456152  63.0078 341.9668  4.14448087  3734
1 41539U 00055NP  18241.45467619  .00000733  00000-0  37125-3 0  9994
2 41539  98.8376 321.2108 0029998 105.1582 255.2915 14.18960603132150
1 41357U 00055JA  18241.90395686 +.00000208 +00000-0 +18247-3 0  9997
2 41357 098.9112 290.3350 0085742 032.7448 327.8988 13.94312310131915
1 41425U 00055LE  18242.11500974  .00000873  00000-0  38181-3 0  9992
2 41425  98.9204 340.4614 0057394  94.0642 266.7100 14.25511329132994
1 41408U 00055KM  18241.04174548 +.00000626 +00000-0 +34454-3 0  9993
2 41408 098.8515 317.0068 0016676 163.4782 196.6938 14.15188897130724
1 41513U 00055MM  18241.91769383  .00000631  00000-0  44691-3 0  9993
2 41513  98.8423 292.3080 0065324  10.8111 349.4441 14.00316147124717
1 41526U 00055NA  18242.19059652  .00000784  00000-0  39846-3 0  9994
2 41526  98.9362 331.5450 0033826 156.1264 204.1489 14.18540984126365
1 41373U 00055JS  18241.02103536  .00000707  00000-0  35843-3 0  9994
2 41373  98.8720 324.8249 0031348 131.3290 229.0591 14.18996192134954
1 41494U 00055LS  18241.69353117  .00000757  00000-0  36490-3 0  9997
2 41494  98.8856 330.1015 0038559  99.3267 261.2273 14.21339991126641
1 41376U 00055JV  18242.44921339  .00000554  00000-0  30860-3 0  9997
2 41376  98.8563 318.6456 0023743 185.2094 174.8836 14.14980762135281
1 41497U 00055LV  18232.38834385 +.00000351 +00000-0 +23934-3 0  9996
2 41497 098.8384 294.9859 0037015 327.4817 032.4072 14.05952616125949
1 41653U 00055NS  18241.65780128 +.00000690 +00000-0 +37611-3 0  9998
2 41653 098.8876 321.3157 0011489 159.1701 200.9942 14.15429463122208
1 41543U 15075D   18240.56897276 -.00000191  00000-0  00000+0 0  9991
2 41543   2.0482  88.6082 0251554  88.9074 274.4996  1.05306047 10069
1 41360U 00055JD  18242.01081154  .00000632  00000-0  36136-3 0  9994
2 41360  98.9204 321.7484 0029940 228.6533 131.2063 14.13021227133398
1 41428U 00055LH  18241.17878911  .00000648  00000-0  35465-3 0  9991
2 41428  98.8765 319.8562 0020496  81.8026 278.5471 14.15343600129535
1 41546U 15075G   18240.96854564 -.00000102  00000-0  00000+0 0  9993
2 41546   1.9976  96.0759 0241334  71.1313 291.9576  1.04637084  9992
1 41363U 00055JG  18241.49257241 +.00000996 +00000-0 +48895-3 0  9998
2 41363 098.8951 327.3521 0029441 102.8158 257.6310 14.19813614132656
1 41431U 00055LL  18241.08849716 +.00002234 +00000-0 +88232-3 0  9999
2 41431 098.9672 347.5047 0059851 089.3485 271.4553 14.29096597134884
1 41561U 08067K   18203.67633523 +.00014865 +00000-0 +83181-1 0  9993
2 41561 065.2852 098.1497 5482945 035.9925 350.8262 04.49051416037577
1 41411U 00055KQ  18242.05650675  .00000517  00000-0  27841-3 0  9990
2 41411  98.8615 322.0010 0021694 113.8088 246.5364 14.17023141131660
1 41516U 00055MQ  18241.65361240 +.00000554 +00000-0 +30434-3 0  9991
2 41516 098.8254 315.5506 0018017 098.0582 262.2636 14.15761923121953
